{
  "type": "FeatureCollection",
  "features": [
    {
      "type": "Feature",
      "properties": {
        "norad_id": 38867,
        "name": "INTELSAT 23 (IS-23)",
        "group": "intelsat",
        "lat": 0.03428124619789847,
        "lon": 140.6569855188592,
        "alt_km": 35784.468810915656,
        "timestamp": "2025-12-09T07:41:32.871262+00:00",
        "meta_object_name": "INTELSAT 23 (IS-23)",
        "meta_object_id": "2012-057A",
        "meta_epoch": "2025-12-08T21:54:46.242144",
        "meta_mean_motion": 1.00260603,
        "meta_eccentricity": 0.00020701,
        "meta_inclination": 0.0414,
        "meta_ra_of_asc_node": 93.9999,
        "meta_arg_of_pericenter": 103.0595,
        "meta_mean_anomaly": 156.5414,
        "meta_ephemeris_type": 0,
        "meta_classification_type": "U",
        "meta_norad_cat_id": 38867,
        "meta_element_set_no": 999,
        "meta_rev_at_epoch": 4804,
        "meta_bstar": 0,
        "meta_mean_motion_dot": -2.83e-06,
        "meta_mean_motion_ddot": 0,
        "tle_line1": "1 38867U 12057A   25342.91303521 -.00000283  00000+0  00000+0 0  9999",
        "tle_line2": "2 38867   0.0414  93.9999 0002070 103.0595 156.5414  1.00260603 48043"
      },
      "geometry": {
        "type": "Point",
        "coordinates": [
          140.6569855188592,
          0.03428124619789847
        ]
      }
    },
    {
      "type": "Feature",
      "properties": {
        "norad_id": 39360,
        "name": "FM-6",
        "group": "intelsat",
        "lat": 0.005134486641072753,
        "lon": 77.50676400379547,
        "alt_km": 35788.28102109192,
        "timestamp": "2025-12-09T07:41:32.871275+00:00",
        "meta_object_name": "FM-6",
        "meta_object_id": "2013-058A",
        "meta_epoch": "2025-12-08T13:15:20.428992",
        "meta_mean_motion": 1.0026711,
        "meta_eccentricity": 0.000319,
        "meta_inclination": 0.0119,
        "meta_ra_of_asc_node": 96.1147,
        "meta_arg_of_pericenter": 75.3013,
        "meta_mean_anomaly": 348.8342,
        "meta_ephemeris_type": 0,
        "meta_classification_type": "U",
        "meta_norad_cat_id": 39360,
        "meta_element_set_no": 999,
        "meta_rev_at_epoch": 4416,
        "meta_bstar": 0,
        "meta_mean_motion_dot": -1.4e-07,
        "meta_mean_motion_ddot": 0,
        "tle_line1": "1 39360U 13058A   25342.55231978 -.00000014  00000+0  00000+0 0  9998",
        "tle_line2": "2 39360   0.0119  96.1147 0003190  75.3013 348.8342  1.00267110 44169"
      },
      "geometry": {
        "type": "Point",
        "coordinates": [
          77.50676400379547,
          0.005134486641072753
        ]
      }
    },
    {
      "type": "Feature",
      "properties": {
        "norad_id": 40271,
        "name": "INTELSAT 30 (IS-30)",
        "group": "intelsat",
        "lat": 0.03084713377854018,
        "lon": 98.64073695145278,
        "alt_km": 35781.39609748159,
        "timestamp": "2025-12-09T07:41:32.871287+00:00",
        "meta_object_name": "INTELSAT 30 (IS-30)",
        "meta_object_id": "2014-062A",
        "meta_epoch": "2025-12-08T21:42:47.389824",
        "meta_mean_motion": 1.00270272,
        "meta_eccentricity": 0.00012284,
        "meta_inclination": 0.0131,
        "meta_ra_of_asc_node": 15.5862,
        "meta_arg_of_pericenter": 73.3362,
        "meta_mean_anomaly": 219.6224,
        "meta_ephemeris_type": 0,
        "meta_classification_type": "U",
        "meta_norad_cat_id": 40271,
        "meta_element_set_no": 999,
        "meta_rev_at_epoch": 487,
        "meta_bstar": 0,
        "meta_mean_motion_dot": -1.49e-06,
        "meta_mean_motion_ddot": 0,
        "tle_line1": "1 40271U 14062A   25342.90471516 -.00000149  00000+0  00000+0 0  9999",
        "tle_line2": "2 40271   0.0131  15.5862 0001228  73.3362 219.6224  1.00270272  4871"
      },
      "geometry": {
        "type": "Point",
        "coordinates": [
          98.64073695145278,
          0.03084713377854018
        ]
      }
    },
    {
      "type": "Feature",
      "properties": {
        "norad_id": 40333,
        "name": "DIRECTV 14",
        "group": "intelsat",
        "lat": 0.034360735624977004,
        "lon": 94.4724528698822,
        "alt_km": 35787.01516523522,
        "timestamp": "2025-12-09T07:41:32.871299+00:00",
        "meta_object_name": "DIRECTV 14",
        "meta_object_id": "2014-078B",
        "meta_epoch": "2025-12-08T21:41:32.510400",
        "meta_mean_motion": 1.00270463,
        "meta_eccentricity": 4.867e-05,
        "meta_inclination": 0.018,
        "meta_ra_of_asc_node": 334.9278,
        "meta_arg_of_pericenter": 225.073,
        "meta_mean_anomaly": 104.0704,
        "meta_ephemeris_type": 0,
        "meta_classification_type": "U",
        "meta_norad_cat_id": 40333,
        "meta_element_set_no": 999,
        "meta_rev_at_epoch": 4013,
        "meta_bstar": 0,
        "meta_mean_motion_dot": -1.23e-06,
        "meta_mean_motion_ddot": 0,
        "tle_line1": "1 40333U 14078B   25342.90384850 -.00000123  00000+0  00000+0 0  9991",
        "tle_line2": "2 40333   0.0180 334.9278 0000486 225.0730 104.0704  1.00270463 40134"
      },
      "geometry": {
        "type": "Point",
        "coordinates": [
          94.4724528698822,
          0.034360735624977004
        ]
      }
    },
    {
      "type": "Feature",
      "properties": {
        "norad_id": 40663,
        "name": "DIRECTV 15",
        "group": "intelsat",
        "lat": 0.025361797662163257,
        "lon": 90.83082672131258,
        "alt_km": 35788.177049320424,
        "timestamp": "2025-12-09T07:41:32.871311+00:00",
        "meta_object_name": "DIRECTV 15",
        "meta_object_id": "2015-026A",
        "meta_epoch": "2025-12-08T14:49:37.716960",
        "meta_mean_motion": 1.0026899,
        "meta_eccentricity": 3.149e-05,
        "meta_inclination": 0.0368,
        "meta_ra_of_asc_node": 78.2463,
        "meta_arg_of_pericenter": 203.1344,
        "meta_mean_anomaly": 275.7875,
        "meta_ephemeris_type": 0,
        "meta_classification_type": "U",
        "meta_norad_cat_id": 40663,
        "meta_element_set_no": 999,
        "meta_rev_at_epoch": 3855,
        "meta_bstar": 0,
        "meta_mean_motion_dot": -1e-06,
        "meta_mean_motion_ddot": 0,
        "tle_line1": "1 40663U 15026A   25342.61779765 -.00000100  00000+0  00000+0 0  9997",
        "tle_line2": "2 40663   0.0368  78.2463 0000314 203.1344 275.7875  1.00268990 38550"
      },
      "geometry": {
        "type": "Point",
        "coordinates": [
          90.83082672131258,
          0.025361797662163257
        ]
      }
    },
    {
      "type": "Feature",
      "properties": {
        "norad_id": 40664,
        "name": "SKY MEXICO-1",
        "group": "intelsat",
        "lat": 0.02868293269809439,
        "lon": 114.91867094853943,
        "alt_km": 35797.20979414154,
        "timestamp": "2025-12-09T07:41:32.871323+00:00",
        "meta_object_name": "SKY MEXICO-1",
        "meta_object_id": "2015-026B",
        "meta_epoch": "2025-12-08T21:47:24.447840",
        "meta_mean_motion": 1.00270859,
        "meta_eccentricity": 0.00027564,
        "meta_inclination": 0.0226,
        "meta_ra_of_asc_node": 57.8612,
        "meta_arg_of_pericenter": 215.4183,
        "meta_mean_anomaly": 52.7141,
        "meta_ephemeris_type": 0,
        "meta_classification_type": "U",
        "meta_norad_cat_id": 40664,
        "meta_element_set_no": 999,
        "meta_rev_at_epoch": 3854,
        "meta_bstar": 0,
        "meta_mean_motion_dot": -2.32e-06,
        "meta_mean_motion_ddot": 0,
        "tle_line1": "1 40664U 15026B   25342.90792185 -.00000232  00000+0  00000+0 0  9997",
        "tle_line2": "2 40664   0.0226  57.8612 0002756 215.4183  52.7141  1.00270859 38547"
      },
      "geometry": {
        "type": "Point",
        "coordinates": [
          114.91867094853943,
          0.02868293269809439
        ]
      }
    },
    {
      "type": "Feature",
      "properties": {
        "norad_id": 40874,
        "name": "INTELSAT 34 (IS-34)",
        "group": "intelsat",
        "lat": 0.0011040102624232549,
        "lon": 138.199279807584,
        "alt_km": 35783.73253581419,
        "timestamp": "2025-12-09T07:41:32.871335+00:00",
        "meta_object_name": "INTELSAT 34 (IS-34)",
        "meta_object_id": "2015-039A",
        "meta_epoch": "2025-12-08T20:11:15.512064",
        "meta_mean_motion": 1.00271316,
        "meta_eccentricity": 7.484e-05,
        "meta_inclination": 0.0137,
        "meta_ra_of_asc_node": 305.0745,
        "meta_arg_of_pericenter": 229.1889,
        "meta_mean_anomaly": 150.9006,
        "meta_ephemeris_type": 0,
        "meta_classification_type": "U",
        "meta_norad_cat_id": 40874,
        "meta_element_set_no": 999,
        "meta_rev_at_epoch": 3771,
        "meta_bstar": 0,
        "meta_mean_motion_dot": -2.83e-06,
        "meta_mean_motion_ddot": 0,
        "tle_line1": "1 40874U 15039A   25342.84115176 -.00000283  00000+0  00000+0 0  9992",
        "tle_line2": "2 40874   0.0137 305.0745 0000748 229.1889 150.9006  1.00271316 37718"
      },
      "geometry": {
        "type": "Point",
        "coordinates": [
          138.199279807584,
          0.0011040102624232549
        ]
      }
    }
  ]
}